[{"OBJECT_NAME":"ONEWEB-0161","OBJECT_ID":"2021-025M","EPOCH":"2025-08-15T11:14:15.974880","MEAN_MOTION":13.13468544,"ECCENTRICITY":0.0001666,"INCLINATION":87.8989,"RA_OF_ASC_NODE":20.956,"ARG_OF_PERICENTER":98.7499,"MEAN_ANOMALY":261.3819,"EPHEMERIS_TYPE":0,"CLASSIFICATION_TYPE":"U","NORAD_CAT_ID":48053,"ELEMENT_SET_NO":999,"REV_AT_EPOCH":21337,"BSTAR":-8.9404e-5,"MEAN_MOTION_DOT":-2.0e-7,"MEAN_MOTION_DDOT":0},{"OBJECT_NAME":"ONEWEB-0158","OBJECT_ID":"2021-025N","EPOCH":"2025-08-15T10:15:47.530944","MEAN_MOTION":13.13468592,"ECCENTRICITY":0.0001925,"INCLINATION":87.8991,"RA_OF_ASC_NODE":20.9432,"ARG_OF_PERICENTER":93.7731,"MEAN_ANOMALY":266.3618,"EPHEMERIS_TYPE":0,"CLASSIFICATION_TYPE":"U","NORAD_CAT_ID":48054,"ELEMENT_SET_NO":999,"REV_AT_EPOCH":21349,"BSTAR":0.00083759,"MEAN_MOTION_DOT":3.19e-6,"MEAN_MOTION_DDOT":0},{"OBJECT_NAME":"ONEWEB-0157","OBJECT_ID":"2021-025P","EPOCH":"2025-08-15T10:52:20.438112","MEAN_MOTION":13.13470303,"ECCENTRICITY":0.0001393,"INCLINATION":87.8986,"RA_OF_ASC_NODE":20.9477,"ARG_OF_PERICENTER":102.2139,"MEAN_ANOMALY":257.9146,"EPHEMERIS_TYPE":0,"CLASSIFICATION_TYPE":"U","NORAD_CAT_ID":48055,"ELEMENT_SET_NO":999,"REV_AT_EPOCH":21343,"BSTAR":-0.00070697,"MEAN_MOTION_DOT":-2.45e-6,"MEAN_MOTION_DDOT":0},{"OBJECT_NAME":"ONEWEB-0162","OBJECT_ID":"2021-025Q","EPOCH":"2025-08-15T12:07:43.424544","MEAN_MOTION":13.13469923,"ECCENTRICITY":0.0001743,"INCLINATION":87.8989,"RA_OF_ASC_NODE":20.9358,"ARG_OF_PERICENTER":96.2482,"MEAN_ANOMALY":263.8845,"EPHEMERIS_TYPE":0,"CLASSIFICATION_TYPE":"U","NORAD_CAT_ID":48056,"ELEMENT_SET_NO":999,"REV_AT_EPOCH":21341,"BSTAR":0.00059806,"MEAN_MOTION_DOT":2.31e-6,"MEAN_MOTION_DDOT":0},{"OBJECT_NAME":"ONEWEB-0155","OBJECT_ID":"2021-025R","EPOCH":"2025-08-15T10:27:57.876192","MEAN_MOTION":13.13468616,"ECCENTRICITY":0.0001595,"INCLINATION":87.8985,"RA_OF_ASC_NODE":20.9574,"ARG_OF_PERICENTER":90.3714,"MEAN_ANOMALY":269.7597,"EPHEMERIS_TYPE":0,"CLASSIFICATION_TYPE":"U","NORAD_CAT_ID":48057,"ELEMENT_SET_NO":999,"REV_AT_EPOCH":21354,"BSTAR":0.00020191,"MEAN_MOTION_DOT":8.6e-7,"MEAN_MOTION_DDOT":0},{"OBJECT_NAME":"ONEWEB-0149","OBJECT_ID":"2021-025S","EPOCH":"2025-08-15T10:59:39.529824","MEAN_MOTION":13.1346945,"ECCENTRICITY":0.0001877,"INCLINATION":87.8985,"RA_OF_ASC_NODE":20.9477,"ARG_OF_PERICENTER":100.9846,"MEAN_ANOMALY":259.1494,"EPHEMERIS_TYPE":0,"CLASSIFICATION_TYPE":"U","NORAD_CAT_ID":48058,"ELEMENT_SET_NO":999,"REV_AT_EPOCH":21335,"BSTAR":-0.0011473,"MEAN_MOTION_DOT":-4.06e-6,"MEAN_MOTION_DDOT":0},{"OBJECT_NAME":"ONEWEB-0148","OBJECT_ID":"2021-025T","EPOCH":"2025-08-15T11:55:43.720320","MEAN_MOTION":13.13468746,"ECCENTRICITY":0.0001873,"INCLINATION":87.8987,"RA_OF_ASC_NODE":20.9645,"ARG_OF_PERICENTER":115.3959,"MEAN_ANOMALY":244.7364,"EPHEMERIS_TYPE":0,"CLASSIFICATION_TYPE":"U","NORAD_CAT_ID":48059,"ELEMENT_SET_NO":999,"REV_AT_EPOCH":21348,"BSTAR":0.0010182,"MEAN_MOTION_DOT":3.85e-6,"MEAN_MOTION_DDOT":0},{"OBJECT_NAME":"ONEWEB-0160","OBJECT_ID":"2021-025U","EPOCH":"2025-08-15T10:30:25.014528","MEAN_MOTION":13.13469974,"ECCENTRICITY":0.0002507,"INCLINATION":87.8988,"RA_OF_ASC_NODE":20.9734,"ARG_OF_PERICENTER":85.0506,"MEAN_ANOMALY":275.0909,"EPHEMERIS_TYPE":0,"CLASSIFICATION_TYPE":"U","NORAD_CAT_ID":48060,"ELEMENT_SET_NO":999,"REV_AT_EPOCH":21342,"BSTAR":8.1883e-5,"MEAN_MOTION_DOT":4.3e-7,"MEAN_MOTION_DDOT":0},{"OBJECT_NAME":"ONEWEB-0163","OBJECT_ID":"2021-025V","EPOCH":"2025-08-15T10:08:28.671648","MEAN_MOTION":13.13470546,"ECCENTRICITY":0.0001469,"INCLINATION":87.8988,"RA_OF_ASC_NODE":20.9569,"ARG_OF_PERICENTER":98.3739,"MEAN_ANOMALY":261.7557,"EPHEMERIS_TYPE":0,"CLASSIFICATION_TYPE":"U","NORAD_CAT_ID":48061,"ELEMENT_SET_NO":999,"REV_AT_EPOCH":21354,"BSTAR":0.00096551,"MEAN_MOTION_DOT":3.65e-6,"MEAN_MOTION_DDOT":0},{"OBJECT_NAME":"ONEWEB-0159","OBJECT_ID":"2021-025W","EPOCH":"2025-08-15T11:45:58.288608","MEAN_MOTION":13.13470843,"ECCENTRICITY":0.0001602,"INCLINATION":87.8989,"RA_OF_ASC_NODE":20.9253,"ARG_OF_PERICENTER":100.6693,"MEAN_ANOMALY":259.4616,"EPHEMERIS_TYPE":0,"CLASSIFICATION_TYPE":"U","NORAD_CAT_ID":48062,"ELEMENT_SET_NO":999,"REV_AT_EPOCH":21347,"BSTAR":0.00086923,"MEAN_MOTION_DOT":3.3e-6,"MEAN_MOTION_DDOT":0},{"OBJECT_NAME":"ONEWEB-0164","OBJECT_ID":"2021-025X","EPOCH":"2025-08-15T11:19:09.317568","MEAN_MOTION":13.13471388,"ECCENTRICITY":0.0001796,"INCLINATION":87.8985,"RA_OF_ASC_NODE":20.9385,"ARG_OF_PERICENTER":93.5182,"MEAN_ANOMALY":266.6152,"EPHEMERIS_TYPE":0,"CLASSIFICATION_TYPE":"U","NORAD_CAT_ID":48063,"ELEMENT_SET_NO":999,"REV_AT_EPOCH":21345,"BSTAR":-6.9061e-5,"MEAN_MOTION_DOT":-1.2e-7,"MEAN_MOTION_DDOT":0},{"OBJECT_NAME":"ONEWEB-0167","OBJECT_ID":"2021-025Y","EPOCH":"2025-08-15T11:59:23.677440","MEAN_MOTION":13.13470212,"ECCENTRICITY":0.0001167,"INCLINATION":87.8996,"RA_OF_ASC_NODE":20.9663,"ARG_OF_PERICENTER":72.9227,"MEAN_ANOMALY":287.2029,"EPHEMERIS_TYPE":0,"CLASSIFICATION_TYPE":"U","NORAD_CAT_ID":48064,"ELEMENT_SET_NO":999,"REV_AT_EPOCH":21344,"BSTAR":0.00084048,"MEAN_MOTION_DOT":3.2e-6,"MEAN_MOTION_DDOT":0},{"OBJECT_NAME":"ONEWEB-0166","OBJECT_ID":"2021-025Z","EPOCH":"2025-08-15T10:42:35.457408","MEAN_MOTION":13.13470912,"ECCENTRICITY":0.0001742,"INCLINATION":87.8984,"RA_OF_ASC_NODE":20.9279,"ARG_OF_PERICENTER":100.7507,"MEAN_ANOMALY":259.3818,"EPHEMERIS_TYPE":0,"CLASSIFICATION_TYPE":"U","NORAD_CAT_ID":48065,"ELEMENT_SET_NO":999,"REV_AT_EPOCH":21351,"BSTAR":-0.00051979,"MEAN_MOTION_DOT":-1.77e-6,"MEAN_MOTION_DDOT":0},{"OBJECT_NAME":"ONEWEB-0151","OBJECT_ID":"2021-025AA","EPOCH":"2025-08-15T10:45:01.966752","MEAN_MOTION":13.13468861,"ECCENTRICITY":0.0001692,"INCLINATION":87.8988,"RA_OF_ASC_NODE":20.9516,"ARG_OF_PERICENTER":90.6175,"MEAN_ANOMALY":269.5147,"EPHEMERIS_TYPE":0,"CLASSIFICATION_TYPE":"U","NORAD_CAT_ID":48066,"ELEMENT_SET_NO":999,"REV_AT_EPOCH":21345,"BSTAR":-0.00062439,"MEAN_MOTION_DOT":-2.15e-6,"MEAN_MOTION_DDOT":0},{"OBJECT_NAME":"ONEWEB-0170","OBJECT_ID":"2021-025AB","EPOCH":"2025-08-15T10:57:12.873600","MEAN_MOTION":13.13470804,"ECCENTRICITY":0.000196,"INCLINATION":87.8989,"RA_OF_ASC_NODE":20.956,"ARG_OF_PERICENTER":80.6433,"MEAN_ANOMALY":279.4917,"EPHEMERIS_TYPE":0,"CLASSIFICATION_TYPE":"U","NORAD_CAT_ID":48067,"ELEMENT_SET_NO":999,"REV_AT_EPOCH":21341,"BSTAR":-0.00070421,"MEAN_MOTION_DOT":-2.44e-6,"MEAN_MOTION_DDOT":0},{"OBJECT_NAME":"ONEWEB-0168","OBJECT_ID":"2021-025AC","EPOCH":"2025-08-15T10:35:16.350144","MEAN_MOTION":13.13468738,"ECCENTRICITY":0.0001606,"INCLINATION":87.8991,"RA_OF_ASC_NODE":20.9403,"ARG_OF_PERICENTER":97.4231,"MEAN_ANOMALY":262.708,"EPHEMERIS_TYPE":0,"CLASSIFICATION_TYPE":"U","NORAD_CAT_ID":48068,"ELEMENT_SET_NO":999,"REV_AT_EPOCH":21342,"BSTAR":-0.00031387,"MEAN_MOTION_DOT":-1.02e-6,"MEAN_MOTION_DDOT":0},{"OBJECT_NAME":"ONEWEB-0173","OBJECT_ID":"2021-025AD","EPOCH":"2025-08-15T12:12:47.539584","MEAN_MOTION":13.13469765,"ECCENTRICITY":0.0001312,"INCLINATION":87.8989,"RA_OF_ASC_NODE":20.935,"ARG_OF_PERICENTER":93.4525,"MEAN_ANOMALY":266.6754,"EPHEMERIS_TYPE":0,"CLASSIFICATION_TYPE":"U","NORAD_CAT_ID":48069,"ELEMENT_SET_NO":999,"REV_AT_EPOCH":21367,"BSTAR":0.00038706,"MEAN_MOTION_DOT":1.54e-6,"MEAN_MOTION_DDOT":0}]
