ONEWEB-0161             
1 48053U 21025M   25227.46824045 -.00000020  00000+0 -89404-4 0  9993
2 48053  87.8989  20.9560 0001666  98.7499 261.3819 13.13468544213373
ONEWEB-0158             
1 48054U 21025N   25227.42763346  .00000319  00000+0  83759-3 0  9991
2 48054  87.8991  20.9432 0001925  93.7731 266.3618 13.13468592213495
ONEWEB-0157             
1 48055U 21025P   25227.45301433 -.00000245  00000+0 -70697-3 0  9997
2 48055  87.8986  20.9477 0001393 102.2139 257.9146 13.13470303213435
ONEWEB-0162             
1 48056U 21025Q   25227.50536371  .00000231  00000+0  59806-3 0  9997
2 48056  87.8989  20.9358 0001743  96.2482 263.8845 13.13469923213415
ONEWEB-0155             
1 48057U 21025R   25227.43608653  .00000086  00000+0  20191-3 0  9996
2 48057  87.8985  20.9574 0001595  90.3714 269.7597 13.13468616213541
ONEWEB-0149             
1 48058U 21025S   25227.45809641 -.00000406  00000+0 -11473-2 0  9999
2 48058  87.8985  20.9477 0001877 100.9846 259.1494 13.13469450213356
ONEWEB-0148             
1 48059U 21025T   25227.49703380  .00000385  00000+0  10182-2 0  9997
2 48059  87.8987  20.9645 0001873 115.3959 244.7364 13.13468746213484
ONEWEB-0160             
1 48060U 21025U   25227.43778952  .00000043  00000+0  81883-4 0  9999
2 48060  87.8988  20.9734 0002507  85.0506 275.0909 13.13469974213422
ONEWEB-0163             
1 48061U 21025V   25227.42255407  .00000365  00000+0  96551-3 0  9998
2 48061  87.8988  20.9569 0001469  98.3739 261.7557 13.13470546213541
ONEWEB-0159             
1 48062U 21025W   25227.49025797  .00000330  00000+0  86923-3 0  9997
2 48062  87.8989  20.9253 0001602 100.6693 259.4616 13.13470843213470
ONEWEB-0164             
1 48063U 21025X   25227.47163562 -.00000012  00000+0 -69061-4 0  9993
2 48063  87.8985  20.9385 0001796  93.5182 266.6152 13.13471388213458
ONEWEB-0167             
1 48064U 21025Y   25227.49957960  .00000320  00000+0  84048-3 0  9990
2 48064  87.8996  20.9663 0001167  72.9227 287.2029 13.13470212213449
ONEWEB-0166             
1 48065U 21025Z   25227.44624372 -.00000177  00000+0 -51979-3 0  9993
2 48065  87.8984  20.9279 0001742 100.7507 259.3818 13.13470912213511
ONEWEB-0151             
1 48066U 21025AA  25227.44793943 -.00000215  00000+0 -62439-3 0  9991
2 48066  87.8988  20.9516 0001692  90.6175 269.5147 13.13468861213453
ONEWEB-0170             
1 48067U 21025AB  25227.45639900 -.00000244  00000+0 -70421-3 0  9997
2 48067  87.8989  20.9560 0001960  80.6433 279.4917 13.13470804213419
ONEWEB-0168             
1 48068U 21025AC  25227.44116146 -.00000102  00000+0 -31387-3 0  9990
2 48068  87.8991  20.9403 0001606  97.4231 262.7080 13.13468738213428
ONEWEB-0173             
1 48069U 21025AD  25227.50888356  .00000154  00000+0  38706-3 0  9994
2 48069  87.8989  20.9350 0001312  93.4525 266.6754 13.13469765213672
